{
  "Corktree Cellars": {
    "address": "4193 Carpinteria Ave, Carpinteria, CA",
    "zip": "93013",
    "city": "Carpinteria"
  },
  "The Red Piano": {
    "address": "519 State St, Santa Barbara, CA",
    "zip": "93101",
    "city": "Santa Barbara"
  },
  "SOhO": {
    "address": "1221 State St #205, Santa Barbara, CA",
    "zip": "93101",
    "city": "Santa Barbara"
  },
  "The Good Lion": {
    "address": "1212 State St, Santa Barbara, CA",
    "zip": "93101",
    "city": "Santa Barbara"
  },
  "Validation Ale": {
    "address": "102 E Yanonali St, Santa Barbara, CA",
    "zip": "93101",
    "city": "Santa Barbara"
  },
  "Institution Ale": {
    "address": "516 State St, Santa Barbara, CA",
    "zip": "93101",
    "city": "Santa Barbara"
  },
  "El Encanto": {
    "address": "800 Alvarado Pl, Santa Barbara, CA",
    "zip": "93103",
    "city": "Santa Barbara"
  },
  "The Leta Hotel": {
    "address": "5650 Calle Real, Goleta, CA",
    "zip": "93117",
    "city": "Goleta"
  },
  "Maverick Saloon": {
    "address": "3687 Sagunto St, Santa Ynez, CA",
    "zip": "93460",
    "city": "Santa Ynez"
  },
  "Lost Chord Guitars": {
    "address": "157 E De La Guerra St, Santa Barbara, CA",
    "zip": "93101",
    "city": "Santa Barbara"
  },
  "Anchor Rose": {
    "address": "113 Harbor Way, Santa Barbara, CA",
    "zip": "93109",
    "city": "Santa Barbara"
  },
  "ITH Santa Barbara Beach Hostel": {
    "address": "134 Chapala St, Santa Barbara, CA",
    "zip": "93101",
    "city": "Santa Barbara"
  },
  "Villa Wine Bar & Kitchen": {
    "address": "618 Anacapa St, Santa Barbara, CA",
    "zip": "93101",
    "city": "Santa Barbara"
  },
  "Satellite": {
    "address": "1117 State St, Santa Barbara, CA",
    "zip": "93101",
    "city": "Santa Barbara"
  },
  "Reef & Run": {
    "address": "Cabrillo Blvd, Santa Barbara, CA",
    "zip": "93101",
    "city": "Santa Barbara"
  }
}
